STARLINK-36517          
1 67454U 26008K   26068.45583027  .00024458  00000+0  89482-3 0  9994
2 67454  42.9956 206.7869 0002153 179.3170 180.7685 15.27599223  9537
KUIPER-00208            
1 67775U 26030M   26068.67231509  .00043852  00000+0  13883-2 0  9994
2 67775  51.8846 219.6993 0015525  57.3146 302.9333 15.32208734  5080
